start=new Date('2023-02-12T00:00:00.000Z').valueOf();
sats=[{"MEAN_ANOMALY":"252.7264","RCS_SIZE":"LARGE","EPHEMERIS_TYPE":"0","ELEMENT_SET_NO":"999","CENTER_NAME":"EARTH","CLASSIFICATION_TYPE":"U","TLE_LINE1":"1 51812U 22017AW  23042.79462853  .00024396  00000-0  15452-2 0  9997","NORAD_CAT_ID":"51812","SEMIMAJOR_AXIS":"6917.852","ECCENTRICITY":"0.00014880","BSTAR":"0.00154520000000","INCLINATION":"53.2155","FILE":"3786577","OBJECT_TYPE":"PAYLOAD","REV_AT_EPOCH":"5471","REF_FRAME":"TEME","GP_ID":"225185190","DECAY_DATE":null,"SITE":"AFWTR","PERIAPSIS":"538.688","RA_OF_ASC_NODE":"325.5082","ARG_OF_PERICENTER":"107.3891","COUNTRY_CODE":"US","OBJECT_ID":"2022-017AW","APOAPSIS":"540.746","TLE_LINE2":"2 51812  53.2155 325.5082 0001488 107.3891 252.7264 15.08849318 54717","MEAN_MOTION_DOT":"0.00024396","LAUNCH_DATE":"2022-02-25","MEAN_MOTION_DDOT":"0.0000000000000","TIME_SYSTEM":"UTC","EPOCH":"2023-02-11T19:04:15.904992","MEAN_MOTION":"15.08849318","MEAN_ELEMENT_THEORY":"SGP4","PERIOD":"95.437","OBJECT_NAME":"STARLINK-3610"},{"MEAN_MOTION_DDOT":"0.0000000000000","TIME_SYSTEM":"UTC","MEAN_MOTION_DOT":"0.00011625","LAUNCH_DATE":"2022-02-25","APOAPSIS":"539.991","TLE_LINE2":"2 51813  53.2162 325.6133 0000273 323.8592  36.2382 15.08821361 54712","COUNTRY_CODE":"US","OBJECT_ID":"2022-017AX","RA_OF_ASC_NODE":"325.6133","ARG_OF_PERICENTER":"323.8592","PERIAPSIS":"539.614","SITE":"AFWTR","GP_ID":"225185941","DECAY_DATE":null,"OBJECT_NAME":"STARLINK-3552","PERIOD":"95.439","MEAN_ELEMENT_THEORY":"SGP4","MEAN_MOTION":"15.08821361","EPOCH":"2023-02-11T18:37:46.275456","ECCENTRICITY":"0.00002730","SEMIMAJOR_AXIS":"6917.937","NORAD_CAT_ID":"51813","TLE_LINE1":"1 51813U 22017AX  23042.77623004  .00011625  00000-0  74762-3 0  9994","CLASSIFICATION_TYPE":"U","CENTER_NAME":"EARTH","ELEMENT_SET_NO":"999","EPHEMERIS_TYPE":"0","RCS_SIZE":"LARGE","MEAN_ANOMALY":"36.2382","REF_FRAME":"TEME","REV_AT_EPOCH":"5471","OBJECT_TYPE":"PAYLOAD","FILE":"3786577","INCLINATION":"53.2162","BSTAR":"0.00074762000000"},{"INCLINATION":"53.2150","BSTAR":"0.00067339000000","OBJECT_TYPE":"PAYLOAD","FILE":"3786577","REF_FRAME":"TEME","REV_AT_EPOCH":"5471","EPHEMERIS_TYPE":"0","RCS_SIZE":"LARGE","MEAN_ANOMALY":"269.9311","CENTER_NAME":"EARTH","ELEMENT_SET_NO":"999","TLE_LINE1":"1 51814U 22017AY  23042.78726471  .00010449  00000-0  67339-3 0  9993","CLASSIFICATION_TYPE":"U","NORAD_CAT_ID":"51814","ECCENTRICITY":"0.00013090","SEMIMAJOR_AXIS":"6917.845","EPOCH":"2023-02-11T18:53:39.670944","MEAN_ELEMENT_THEORY":"SGP4","MEAN_MOTION":"15.08851568","OBJECT_NAME":"STARLINK-3599","PERIOD":"95.437","SITE":"AFWTR","GP_ID":"225184190","DECAY_DATE":null,"PERIAPSIS":"538.804","TLE_LINE2":"2 51814  53.2150 325.5451 0001309  90.1831 269.9311 15.08851568 54712","APOAPSIS":"540.616","OBJECT_ID":"2022-017AY","COUNTRY_CODE":"US","RA_OF_ASC_NODE":"325.5451","ARG_OF_PERICENTER":"90.1831","MEAN_MOTION_DDOT":"0.0000000000000","TIME_SYSTEM":"UTC","MEAN_MOTION_DOT":"0.00010449","LAUNCH_DATE":"2022-02-25"},{"EPOCH":"2023-02-11T18:58:58.309824","OBJECT_NAME":"STARLINK-3604","PERIOD":"95.437","MEAN_ELEMENT_THEORY":"SGP4","MEAN_MOTION":"15.08848092","PERIAPSIS":"538.837","SITE":"AFWTR","GP_ID":"225184440","DECAY_DATE":null,"TIME_SYSTEM":"UTC","MEAN_MOTION_DDOT":"0.0000000000000","LAUNCH_DATE":"2022-02-25","MEAN_MOTION_DOT":"0.00022997","APOAPSIS":"540.604","TLE_LINE2":"2 51815  53.2140 325.5278 0001277  52.8416 307.2692 15.08848092 54713","COUNTRY_CODE":"US","OBJECT_ID":"2022-017AZ","ARG_OF_PERICENTER":"52.8416","RA_OF_ASC_NODE":"325.5278","OBJECT_TYPE":"PAYLOAD","FILE":"3786577","INCLINATION":"53.2140","BSTAR":"0.00145800000000","REF_FRAME":"TEME","REV_AT_EPOCH":"5471","CENTER_NAME":"EARTH","ELEMENT_SET_NO":"999","EPHEMERIS_TYPE":"0","RCS_SIZE":"LARGE","MEAN_ANOMALY":"307.2692","ECCENTRICITY":"0.00012770","SEMIMAJOR_AXIS":"6917.856","CLASSIFICATION_TYPE":"U","TLE_LINE1":"1 51815U 22017AZ  23042.79095266  .00022997  00000-0  14580-2 0  9996","NORAD_CAT_ID":"51815"},{"REV_AT_EPOCH":"5476","REF_FRAME":"TEME","BSTAR":"0.00299200000000","INCLINATION":"53.2155","FILE":"3786577","OBJECT_TYPE":"PAYLOAD","CLASSIFICATION_TYPE":"U","TLE_LINE1":"1 51816U 22017BA  23042.78359203  .00047666  00000-0  29920-2 0  9994","NORAD_CAT_ID":"51816","SEMIMAJOR_AXIS":"6917.848","ECCENTRICITY":"0.00011970","MEAN_ANOMALY":"281.4057","RCS_SIZE":"LARGE","EPHEMERIS_TYPE":"0","ELEMENT_SET_NO":"999","CENTER_NAME":"EARTH","MEAN_MOTION":"15.08850710","MEAN_ELEMENT_THEORY":"SGP4","PERIOD":"95.437","OBJECT_NAME":"STARLINK-3603","EPOCH":"2023-02-11T18:48:22.351392","RA_OF_ASC_NODE":"325.5546","ARG_OF_PERICENTER":"78.7069","OBJECT_ID":"2022-017BA","COUNTRY_CODE":"US","APOAPSIS":"540.541","TLE_LINE2":"2 51816  53.2155 325.5546 0001197  78.7069 281.4057 15.08850710 54763","LAUNCH_DATE":"2022-02-25","MEAN_MOTION_DOT":"0.00047666","TIME_SYSTEM":"UTC","MEAN_MOTION_DDOT":"0.0000000000000","GP_ID":"225185691","DECAY_DATE":null,"SITE":"AFWTR","PERIAPSIS":"538.885"},{"BSTAR":"0.00004659300000","INCLINATION":"53.1908","FILE":"3786144","OBJECT_TYPE":"PAYLOAD","REV_AT_EPOCH":"5661","REF_FRAME":"TEME","MEAN_ANOMALY":"4.9380","RCS_SIZE":"LARGE","EPHEMERIS_TYPE":"0","ELEMENT_SET_NO":"999","CENTER_NAME":"EARTH","NORAD_CAT_ID":"51817","TLE_LINE1":"1 51817U 22017BB  23042.52111617  .00006985  00000-0  46593-4 0  9998","CLASSIFICATION_TYPE":"U","SEMIMAJOR_AXIS":"6717.792","ECCENTRICITY":"0.00006760","EPOCH":"2023-02-11T12:30:24.437088","MEAN_MOTION":"15.76750340","MEAN_ELEMENT_THEORY":"SGP4","PERIOD":"91.327","OBJECT_NAME":"STARLINK-3596","GP_ID":"225122315","DECAY_DATE":null,"SITE":"AFWTR","PERIAPSIS":"339.203","ARG_OF_PERICENTER":"355.1635","RA_OF_ASC_NODE":"195.2284","OBJECT_ID":"2022-017BB","COUNTRY_CODE":"US","TLE_LINE2":"2 51817  53.1908 195.2284 0000676 355.1635   4.9380 15.76750340 56618","APOAPSIS":"340.111","LAUNCH_DATE":"2022-02-25","MEAN_MOTION_DOT":"0.00006985","MEAN_MOTION_DDOT":"0.0000000000000","TIME_SYSTEM":"UTC"},{"EPOCH":"2023-02-11T09:57:06.687072","OBJECT_NAME":"STARLINK-3542","PERIOD":"95.434","MEAN_MOTION":"15.08889882","MEAN_ELEMENT_THEORY":"SGP4","PERIAPSIS":"538.591","DECAY_DATE":null,"GP_ID":"225158995","SITE":"AFETR","MEAN_MOTION_DOT":"0.00030004","LAUNCH_DATE":"2022-03-03","MEAN_MOTION_DDOT":"0.0000000000000","TIME_SYSTEM":"UTC","RA_OF_ASC_NODE":"17.2099","ARG_OF_PERICENTER":"100.6062","APOAPSIS":"540.595","TLE_LINE2":"2 51852  53.2178  17.2099 0001449 100.6062 259.5094 15.08889882 53582","COUNTRY_CODE":"US","OBJECT_ID":"2022-022A","FILE":"3786462","OBJECT_TYPE":"PAYLOAD","BSTAR":"0.00189270000000","INCLINATION":"53.2178","REF_FRAME":"TEME","REV_AT_EPOCH":"5358","CENTER_NAME":"EARTH","ELEMENT_SET_NO":"999","MEAN_ANOMALY":"259.5094","EPHEMERIS_TYPE":"0","RCS_SIZE":"LARGE","SEMIMAJOR_AXIS":"6917.728","ECCENTRICITY":"0.00014490","TLE_LINE1":"1 51852U 22022A   23042.41466073  .00030004  00000-0  18927-2 0  9997","NORAD_CAT_ID":"51852","CLASSIFICATION_TYPE":"U"},{"MEAN_MOTION":"15.08830396","MEAN_ELEMENT_THEORY":"SGP4","OBJECT_NAME":"STARLINK-3539","PERIOD":"95.438","EPOCH":"2023-02-11T19:34:44.395968","RA_OF_ASC_NODE":"15.4152","ARG_OF_PERICENTER":"119.4185","TLE_LINE2":"2 51853  53.2168  15.4152 0001562 119.4185 240.6964 15.08830396 53596","APOAPSIS":"540.855","COUNTRY_CODE":"US","OBJECT_ID":"2022-022B","LAUNCH_DATE":"2022-03-03","MEAN_MOTION_DOT":"-0.00004480","TIME_SYSTEM":"UTC","MEAN_MOTION_DDOT":"0.0000000000000","GP_ID":"225185695","DECAY_DATE":null,"SITE":"AFETR","PERIAPSIS":"538.694","REF_FRAME":"TEME","REV_AT_EPOCH":"5359","BSTAR":"-0.00026362000000","INCLINATION":"53.2168","FILE":"3786577","OBJECT_TYPE":"PAYLOAD","TLE_LINE1":"1 51853U 22022B   23042.81579162 -.00004480  00000-0 -26362-3 0  9990","CLASSIFICATION_TYPE":"U","NORAD_CAT_ID":"51853","SEMIMAJOR_AXIS":"6917.910","ECCENTRICITY":"0.00015620","MEAN_ANOMALY":"240.6964","EPHEMERIS_TYPE":"0","RCS_SIZE":"LARGE","CENTER_NAME":"EARTH","ELEMENT_SET_NO":"999"},{"TLE_LINE1":"1 51854U 22022C   23042.94090779  .00000545  00000-0  52310-4 0  9996","CLASSIFICATION_TYPE":"U","NORAD_CAT_ID":"51854","ECCENTRICITY":"0.00012290","SEMIMAJOR_AXIS":"6917.878","EPHEMERIS_TYPE":"0","RCS_SIZE":"LARGE","MEAN_ANOMALY":"265.8945","CENTER_NAME":"EARTH","ELEMENT_SET_NO":"999","REF_FRAME":"TEME","REV_AT_EPOCH":"5367","INCLINATION":"53.2183","BSTAR":"0.00005231000000","OBJECT_TYPE":"PAYLOAD","FILE":"3786498","TLE_LINE2":"2 51854  53.2183  14.8437 0001229  94.2188 265.8945 15.08840641 53677","APOAPSIS":"540.594","COUNTRY_CODE":"US","OBJECT_ID":"2022-022C","RA_OF_ASC_NODE":"14.8437","ARG_OF_PERICENTER":"94.2188","MEAN_MOTION_DDOT":"0.0000000000000","TIME_SYSTEM":"UTC","LAUNCH_DATE":"2022-03-03","MEAN_MOTION_DOT":"0.00000545","SITE":"AFETR","GP_ID":"225159838","DECAY_DATE":null,"PERIAPSIS":"538.893","MEAN_ELEMENT_THEORY":"SGP4","MEAN_MOTION":"15.08840641","OBJECT_NAME":"STARLINK-3541","PERIOD":"95.438","EPOCH":"2023-02-11T22:34:54.433056"},{"GP_ID":"225184695","DECAY_DATE":null,"SITE":"AFETR","PERIAPSIS":"536.852","ARG_OF_PERICENTER":"10.8362","RA_OF_ASC_NODE":"15.7876","OBJECT_ID":"2022-022D","COUNTRY_CODE":"US","TLE_LINE2":"2 51855  53.2165  15.7876 0004122  10.8362 349.2718 15.08853758 53597","APOAPSIS":"542.555","LAUNCH_DATE":"2022-03-03","MEAN_MOTION_DOT":"0.00007368","MEAN_MOTION_DDOT":"0.0000000000000","TIME_SYSTEM":"UTC","EPOCH":"2023-02-11T17:38:06.243072","MEAN_MOTION":"15.08853758","MEAN_ELEMENT_THEORY":"SGP4","PERIOD":"95.437","OBJECT_NAME":"STARLINK-3545","MEAN_ANOMALY":"349.2718","RCS_SIZE":"LARGE","EPHEMERIS_TYPE":"0","ELEMENT_SET_NO":"999","CENTER_NAME":"EARTH","TLE_LINE1":"1 51855U 22022D   23042.73479448  .00007368  00000-0  48032-3 0  9993","NORAD_CAT_ID":"51855","CLASSIFICATION_TYPE":"U","SEMIMAJOR_AXIS":"6917.838","ECCENTRICITY":"0.00041220","BSTAR":"0.00048032000000","INCLINATION":"53.2165","FILE":"3786577","OBJECT_TYPE":"PAYLOAD","REV_AT_EPOCH":"5359","REF_FRAME":"TEME"}];
